H1 CPF 01  gfz 2021 09 19 13  7622 tandemx   
H2 1003001  6202 36605    2021 09 19 12 59 42 2021 09 24 00 00 42   120 1 1  0 0 0
H9
10 0 59479  85662.000000  0     956553.630  -1302922.888  -6703342.765
10 0 59479  85782.000000  0     959483.041  -2190405.036  -6467421.864
10 0 59479  85902.000000  0     930593.345  -3039711.448  -6118653.106
10 0 59479  86022.000000  0     871175.687  -3835544.553  -5663047.134
10 0 59479  86142.000000  0     783308.156  -4563532.196  -5108472.706
10 0 59479  86262.000000  0     669804.313  -5210488.658  -4464532.008
10 0 59479  86382.000000  0     534144.036  -5764659.959  -3742406.044
10 0 59480    102.000000  0     380388.179  -6215947.133  -2954669.338
10 0 59480    222.000000  0     213078.886  -6556101.753  -2115077.632
10 0 59480    342.000000  0      37127.614  -6778890.356  -1238330.527
10 0 59480    462.000000  0    -142307.078  -6880220.965   -339812.095
10 0 59480    582.000000  0    -319948.805  -6858227.727    564683.909
10 0 59480    702.000000  0    -490536.495  -6713312.219   1459238.298
10 0 59480    822.000000  0    -648958.081  -6448139.966   2328095.600
10 0 59480    942.000000  0    -790381.157  -6067590.439   3155951.392
10 0 59480   1062.000000  0    -910375.997  -5578660.770   3928230.513
10 0 59480   1182.000000  0   -1005029.560  -4990328.076   4631347.602
10 0 59480   1302.000000  0   -1071047.416  -4313375.370   5252947.648
10 0 59480   1422.000000  0   -1105840.161  -3560184.867   5782122.968
10 0 59480   1542.000000  0   -1107593.709  -2744501.081   6209602.300
10 0 59480   1662.000000  0   -1075320.524  -1881171.624   6527906.101
10 0 59480   1782.000000  0   -1008891.967   -985873.735   6731470.634
10 0 59480   1902.000000  0    -909052.270    -74827.428   6816740.625
10 0 59480   2022.000000  0    -777413.092    835498.980   6782227.375
10 0 59480   2142.000000  0    -616427.327   1728686.191   6628533.534
10 0 59480   2262.000000  0    -429343.274   2588659.766   6358343.119
10 0 59480   2382.000000  0    -220140.280   3399979.371   5976377.473
10 0 59480   2502.000000  0       6552.700   4148117.921   5489317.717
10 0 59480   2622.000000  0     245554.850   4819725.443   4905693.468
10 0 59480   2742.000000  0     491246.475   5402874.503   4235739.981
10 0 59480   2862.000000  0     737693.734   5887279.604   3491220.928
10 0 59480   2982.000000  0     978782.944   6264487.244   2685228.432
10 0 59480   3102.000000  0    1208364.545   6528038.945   1831950.383
10 0 59480   3222.000000  0    1420398.329   6673587.395    946414.505
10 0 59480   3342.000000  0    1609099.011   6698973.430     44216.803
10 0 59480   3462.000000  0    1769077.961   6604257.950   -858761.244
10 0 59480   3582.000000  0    1895476.828   6391709.683  -1746640.269
10 0 59480   3702.000000  0    1984090.488   6065749.648  -2603829.515
10 0 59480   3822.000000  0    2031476.127   5632853.276  -3415306.731
10 0 59480   3942.000000  0    2035045.728   5101412.339  -4166885.313
10 0 59480   4062.000000  0    1993139.627   4481560.247  -4845461.946
10 0 59480   4182.000000  0    1905079.478   3784967.443  -5439239.898
10 0 59480   4302.000000  0    1771200.773   3024612.880  -5937925.845
10 0 59480   4422.000000  0    1592863.544   2214535.446  -6332898.394
10 0 59480   4542.000000  0    1372441.863   1369571.713  -6617344.881
10 0 59480   4662.000000  0    1113293.624    505085.720  -6786368.221
10 0 59480   4782.000000  0     819709.401   -363306.856  -6837062.824
10 0 59480   4902.000000  0     496841.744  -1220015.439  -6768558.162
10 0 59480   5022.000000  0     150616.674  -2049746.849  -6582030.495
10 0 59480   5142.000000  0    -212371.378  -2837770.200  -6280685.891
10 0 59480   5262.000000  0    -584981.655  -3570174.829  -5869712.543
10 0 59480   5382.000000  0    -959662.733  -4234113.896  -5356199.781
10 0 59480   5502.000000  0   -1328600.299  -4818031.325  -4749027.693
10 0 59480   5622.000000  0   -1683875.612  -5311869.016  -4058725.202
10 0 59480   5742.000000  0   -2017631.368  -5707248.862  -3297297.384
10 0 59480   5862.000000  0   -2322241.219  -5997625.328  -2478024.391
10 0 59480   5982.000000  0   -2590479.451  -6178405.473  -1615234.651
10 0 59480   6102.000000  0   -2815686.910  -6247033.133   -724054.844
10 0 59480   6222.000000  0   -2991928.840  -6203033.127    179859.412
10 0 59480   6342.000000  0   -3114139.814  -6048013.021   1080605.541
10 0 59480   6462.000000  0   -3178252.178  -5785623.039   1962322.378
10 0 59480   6582.000000  0   -3181304.484  -5421474.126   2809478.862
10 0 59480   6702.000000  0   -3121526.891  -4963016.645   3607155.597
10 0 59480   6822.000000  0   -2998401.463  -4419383.577   4341313.708
10 0 59480   6942.000000  0   -2812696.544  -3801201.862   4999045.409
10 0 59480   7062.000000  0   -2566474.694  -3120376.668   5568801.514
10 0 59480   7182.000000  0   -2263072.767  -2389854.495   6040591.579
10 0 59480   7302.000000  0   -1907056.256  -1623371.941   6406154.452
10 0 59480   7422.000000  0   -1504148.314   -835193.441   6659098.743
10 0 59480   7542.000000  0   -1061134.981    -39841.850   6795007.574
10 0 59480   7662.000000  0    -585750.684    748168.511   6811509.171
10 0 59480   7782.000000  0     -86543.403   1514595.896   6708316.711
10 0 59480   7902.000000  0     427279.007   2245728.452   6487233.223
10 0 59480   8022.000000  0     946018.397   2928629.514   6152121.482
10 0 59480   8142.000000  0    1459668.354   3551367.009   5708840.772
10 0 59480   8262.000000  0    1958106.237   4103225.225   5165150.325
10 0 59480   8382.000000  0    2431292.904   4574894.626   4530579.756
10 0 59480   8502.000000  0    2869476.127   4958635.065   3816266.216
10 0 59480   8622.000000  0    3263391.741   5248408.613   3034763.080
10 0 59480   8742.000000  0    3604461.938   5439983.823   2199821.524
10 0 59480   8862.000000  0    3884983.417   5531001.673   1326142.975
10 0 59480   8982.000000  0    4098298.078   5521003.501    429115.599
10 0 59480   9102.000000  0    4238945.560   5411421.490   -475465.619
10 0 59480   9222.000000  0    4302792.060   5205528.463  -1371685.338
10 0 59480   9342.000000  0    4287133.138   4908352.249  -2243795.652
10 0 59480   9462.000000  0    4190766.945   4526555.336  -3076499.755
10 0 59480   9582.000000  0    4014036.072   4068283.264  -3855225.210
10 0 59480   9702.000000  0    3758837.723   3542985.437  -4566379.305
10 0 59480   9822.000000  0    3428604.129   2961214.995  -5197583.151
10 0 59480   9942.000000  0    3028252.136   2334411.678  -5737881.134
10 0 59480  10062.000000  0    2564104.506   1674673.290  -6177921.643
10 0 59480  10182.000000  0    2043785.162    994520.593  -6510107.663
10 0 59480  10302.000000  0    1476091.272    306661.246  -6728715.279
10 0 59480  10422.000000  0     870845.290   -376243.248  -6829983.160
10 0 59480  10542.000000  0     238725.793  -1041806.331  -6812170.752
10 0 59480  10662.000000  0    -408917.012  -1678135.141  -6675582.963
10 0 59480  10782.000000  0   -1060259.245  -2274036.703  -6422566.046
10 0 59480  10902.000000  0   -1703214.287  -2819211.483  -6057472.657
10 0 59480  11022.000000  0   -2325651.714  -3304429.613  -5586594.293
10 0 59480  11142.000000  0   -2915622.052  -3721687.834  -5018064.492
10 0 59480  11262.000000  0   -3461585.822  -4064346.013  -4361730.618
10 0 59480  11382.000000  0   -3952640.635  -4327238.388  -3628993.414
10 0 59480  11502.000000  0   -4378741.757  -4506757.624  -2832618.027
10 0 59480  11622.000000  0   -4730912.166  -4600909.647  -1986517.299
10 0 59480  11742.000000  0   -5001436.283  -4609336.817  -1105510.716
10 0 59480  11862.000000  0   -5184032.364  -4533308.670   -205063.206
10 0 59480  11982.000000  0   -5273999.138  -4375680.180    698991.301
10 0 59480  12102.000000  0   -5268331.909  -4140817.374   1590736.874
10 0 59480  12222.000000  0   -5165803.971  -3834491.115   2454465.611
10 0 59480  12342.000000  0   -4967011.744  -3463742.482   3274963.064
10 0 59480  12462.000000  0   -4674382.942  -3036723.911   4037783.261
10 0 59480  12582.000000  0   -4292147.321  -2562519.558   4729508.539
10 0 59480  12702.000000  0   -3826270.495  -2050949.601   5337986.466
10 0 59480  12822.000000  0   -3284355.355  -1512365.263   5852540.906
10 0 59480  12942.000000  0   -2675512.521   -957437.963   6264156.784
10 0 59480  13062.000000  0   -2010200.631   -396945.468   6565633.916
10 0 59480  13182.000000  0   -1300040.847    158438.826   6751705.848
10 0 59480  13302.000000  0    -557611.464    698347.455   6819125.126
10 0 59480  13422.000000  0     203774.991   1212911.370   6766716.618
10 0 59480  13542.000000  0     970309.904   1692940.039   6595396.929
10 0 59480  13662.000000  0    1727938.548   2130085.931   6308158.987
10 0 59480  13782.000000  0    2462616.890   2516989.635   5910022.596
10 0 59480  13902.000000  0    3160572.325   2847405.120   5407952.935
10 0 59480  14022.000000  0    3808565.147   3116303.206   4810744.808
10 0 59480  14142.000000  0    4394142.853   3319950.507   4128873.122
10 0 59480  14262.000000  0    4905884.775   3455962.322   3374315.499
10 0 59480  14382.000000  0    5333634.479   3523329.550   2560342.833
10 0 59480  14502.000000  0    5668707.093   3522414.981   1701283.578
10 0 59480  14622.000000  0    5904071.128   3454922.703    812267.669
10 0 59480  14742.000000  0    6034499.178   3323839.273    -91047.567
10 0 59480  14862.000000  0    6056682.246   3133347.470   -992762.043
10 0 59480  14982.000000  0    5969305.854   2888715.413  -1877021.392
10 0 59480  15102.000000  0    5773085.071   2596165.247  -2728302.755
10 0 59480  15222.000000  0    5470759.599   2262724.343  -3531692.868
10 0 59480  15342.000000  0    5067049.101   1896061.792  -4273151.848
10 0 59480  15462.000000  0    4568569.134   1504315.030  -4939758.459
10 0 59480  15582.000000  0    3983710.718   1095911.623  -5519928.969
10 0 59480  15702.000000  0    3322489.882    679391.130  -6003609.620
99
